NORAD_CAT_ID,OBJECT_NAME,OBJECT_TYPE,EPOCH,MEAN_MOTION,ECCENTRICITY,INCLINATION,RA_OF_ASC_NODE,ARG_OF_PERICENTER,MEAN_ANOMALY,BSTAR,MEAN_MOTION_DOT,MEAN_MOTION_DDOT,TLE_LINE0,TLE_LINE1,TLE_LINE2,SEMIMAJOR_AXIS,PERIOD,APOGEE,PERIGEE,DECAYED
50831.0,STARLINK-3299,PAYLOAD,2024-05-01 06:59:27,15.08850967,0.0001249,53.2185,330.1491,94.1077,266.0058,2.4904e-05,1.09e-06,0.0,0 STARLINK-3299,1 50831U 22001AE  24122.29129219  .00000109  00000-0  24904-4 0  9991,2 50831  53.2185 330.1491 0001249  94.1077 266.0058 15.08850967129411,6917.847,95.437,540.576,538.848,0.0
50831.0,STARLINK-3299,PAYLOAD,2024-05-01 22:53:18,15.08858226,0.0001145,53.2168,327.1745,91.4267,268.6856,0.00022418,3.284e-05,0.0,0 STARLINK-3299,1 50831U 22001AE  24122.95368106  .00003284  00000-0  22418-3 0  9998,2 50831  53.2168 327.1745 0001145  91.4267 268.6856 15.08858226129517,6917.825,95.436,540.482,538.898,0.0
50831.0,STARLINK-3299,PAYLOAD,2024-05-02 13:11:47,15.08835938,0.0002709,53.2164,324.5005,81.5817,278.5482,0.00053155,8.181e-05,0.0,0 STARLINK-3299,1 50831U 22001AE  24123.54984984  .00008181  00000-0  53155-3 0  9995,2 50831  53.2164 324.5005 0002709  81.5817 278.5482 15.08835938129601,6917.893,95.438,541.632,537.884,0.0
50831.0,STARLINK-3299,PAYLOAD,2024-05-02 19:33:20,15.08843563,0.0001249,53.2166,323.3087,87.8844,272.2291,3.2251e-05,2.25e-06,0.0,0 STARLINK-3299,1 50831U 22001AE  24123.81481774  .00000225  00000-0  32251-4 0  9990,2 50831  53.2166 323.3087 0001249  87.8844 272.2291 15.08843563129643,6917.869,95.437,540.599,538.87,0.0
50831.0,STARLINK-3299,PAYLOAD,2024-05-03 06:41:01,15.08857144,0.0001398,53.2175,321.2267,88.4989,271.6164,0.00012641,1.725e-05,0.0,0 STARLINK-3299,1 50831U 22001AE  24124.27848449  .00001725  00000-0  12641-3 0  9993,2 50831  53.2175 321.2267 0001398  88.4989 271.6164 15.08857144129712,6917.828,95.436,540.66,538.726,0.0
50831.0,STARLINK-3299,PAYLOAD,2024-05-03 19:24:06,15.08854833,0.0001643,53.2195,318.8466,94.0568,266.0612,-4.6661e-05,-1.031e-05,0.0,0 STARLINK-3299,1 50831U 22001AE  24124.80840511 -.00001031  00000-0 -46661-4 0  9996,2 50831  53.2195 318.8466 0001643  94.0568 266.0612 15.08854833129792,6917.835,95.437,540.837,538.563,0.0
50831.0,STARLINK-3299,PAYLOAD,2024-05-03 22:34:52,15.08855307,0.0001515,53.2183,318.2521,91.6973,268.4192,-4.1712e-05,-9.52e-06,0.0,0 STARLINK-3299,1 50831U 22001AE  24124.94088301 -.00000952  00000-0 -41712-4 0  9995,2 50831  53.2183 318.2521 0001515  91.6973 268.4192 15.08855307128544,6917.834,95.437,540.747,538.651,0.0
50831.0,STARLINK-3299,PAYLOAD,2024-05-04 19:14:53,15.08834941,0.0001534,53.2171,314.3891,87.1361,272.9807,6.9312e-05,8.15e-06,0.0,0 STARLINK-3299,1 50831U 22001AE  24125.80201119  .00000815  00000-0  69312-4 0  9997,2 50831  53.2171 314.3891 0001534  87.1361 272.9807 15.08834941129949,6917.896,95.438,540.822,538.7,0.0
50831.0,STARLINK-3299,PAYLOAD,2024-05-05 12:44:07,15.08840645,0.0001534,53.2181,311.1152,92.8132,267.3036,8.298e-05,1.033e-05,0.0,0 STARLINK-3299,1 50831U 22001AE  24126.53064739  .00001033  00000-0  82980-4 0  9992,2 50831  53.2181 311.1152 0001534  92.8132 267.3036 15.08840645128785,6917.878,95.438,540.805,538.682,0.0
50831.0,STARLINK-3299,PAYLOAD,2024-05-05 19:05:40,15.08842944,0.000145,53.218,309.9263,89.7043,270.4115,5.118e-05,5.27e-06,0.0,0 STARLINK-3299,1 50831U 22001AE  24126.79560775  .00000527  00000-0  51180-4 0  9996,2 50831  53.2180 309.9263 0001450  89.7043 270.4115 15.08842944128827,6917.871,95.437,540.739,538.733,0.0
50831.0,STARLINK-3299,PAYLOAD,2024-05-06 04:37:58,15.08852292,0.0001452,53.2184,308.1423,89.4875,270.6284,0.00013026,1.786e-05,0.0,0 STARLINK-3299,1 50831U 22001AE  24127.19303938  .00001786  00000-0  13026-3 0  9991,2 50831  53.2184 308.1423 0001452  89.4875 270.6284 15.08852292130157,6917.843,95.437,540.712,538.703,0.0
50831.0,STARLINK-3299,PAYLOAD,2024-05-06 10:59:31,15.08847626,0.0001887,53.2194,306.9587,86.9567,273.1641,0.00010879,1.444e-05,0.0,0 STARLINK-3299,1 50831U 22001AE  24127.45800432  .00001444  00000-0  10879-3 0  9995,2 50831  53.2194 306.9587 0001887  86.9567 273.1641 15.08847626130191,6917.857,95.437,541.027,538.417,0.0
50831.0,STARLINK-3299,PAYLOAD,2024-05-06 18:56:27,15.08836593,0.0001352,53.2176,305.4681,88.3402,271.7745,7.7621e-05,9.48e-06,0.0,0 STARLINK-3299,1 50831U 22001AE  24127.78921249  .00000948  00000-0  77621-4 0  9998,2 50831  53.2176 305.4681 0001352  88.3402 271.7745 15.08836593130247,6917.891,95.438,540.691,538.821,0.0
50831.0,STARLINK-3299,PAYLOAD,2024-05-07 04:28:45,15.0884892,0.0001449,53.2191,303.6838,89.9192,270.1966,0.000164,2.324e-05,0.0,0 STARLINK-3299,1 50831U 22001AE  24128.18664350  .00002324  00000-0  16400-3 0  9997,2 50831  53.2191 303.6838 0001449  89.9192 270.1966 15.08848920130300,6917.853,95.437,540.721,538.716,0.0
50831.0,STARLINK-3299,PAYLOAD,2024-05-07 20:22:38,15.08830651,0.0001401,53.2175,300.711,91.2576,268.8577,-3.8213e-05,-8.96e-06,0.0,0 STARLINK-3299,1 50831U 22001AE  24128.84905670 -.00000896  00000-0 -38213-4 0  9994,2 50831  53.2175 300.7110 0001401  91.2576 268.8577 15.08830651130408,6917.909,95.438,540.743,538.805,0.0
50831.0,STARLINK-3299,PAYLOAD,2024-05-08 04:19:33,15.08841739,0.0001391,53.2176,299.2238,87.4414,272.6737,0.00010182,1.333e-05,0.0,0 STARLINK-3299,1 50831U 22001AE  24129.18025304  .00001333  00000-0  10182-3 0  9998,2 50831  53.2176 299.2238 0001391  87.4414 272.6737 15.08841739130453,6917.875,95.437,540.702,538.778,0.0
50831.0,STARLINK-3299,PAYLOAD,2024-05-08 10:41:06,15.08835524,0.0001349,53.2176,298.0344,88.8348,271.2799,0.00016344,2.314e-05,0.0,0 STARLINK-3299,1 50831U 22001AE  24129.44521755  .00002314  00000-0  16344-3 0  9994,2 50831  53.2176 298.0344 0001349  88.8348 271.2799 15.08835524129223,6917.894,95.438,540.692,538.826,0.0
50831.0,STARLINK-3299,PAYLOAD,2024-05-08 18:38:02,15.08844916,0.0001134,53.2171,296.5424,82.9839,277.1282,0.00016393,2.322e-05,0.0,0 STARLINK-3299,1 50831U 22001AE  24129.77641287  .00002322  00000-0  16393-3 0  9996,2 50831  53.2171 296.5424 0001134  82.9839 277.1282 15.08844916129274,6917.865,95.437,540.515,538.946,0.0
50831.0,STARLINK-3299,PAYLOAD,2024-05-09 10:31:54,15.08840149,0.0001677,53.2174,293.5736,83.3258,276.7925,0.00033973,5.123e-05,0.0,0 STARLINK-3299,1 50831U 22001AE  24130.43882061  .00005123  00000-0  33973-3 0  9993,2 50831  53.2174 293.5736 0001677  83.3258 276.7925 15.08840149130648,6917.88,95.438,540.905,538.585,0.0
50831.0,STARLINK-3299,PAYLOAD,2024-05-09 18:28:49,15.08844089,0.0001213,53.2166,292.0852,85.3201,274.7929,0.00024965,3.688e-05,0.0,0 STARLINK-3299,1 50831U 22001AE  24130.77001733  .00003688  00000-0  24965-3 0  9994,2 50831  53.2166 292.0852 0001213  85.3201 274.7929 15.08844089129421,6917.868,95.437,540.572,538.894,0.0
50831.0,STARLINK-3299,PAYLOAD,2024-05-10 04:01:07,15.08858083,0.0001269,53.217,290.3025,84.2507,275.863,0.00047747,7.323e-05,0.0,0 STARLINK-3299,1 50831U 22001AE  24131.16745232  .00007323  00000-0  47747-3 0  9990,2 50831  53.2170 290.3025 0001269  84.2507 275.8630 15.08858083130755,6917.825,95.436,540.568,538.812,0.0
50831.0,STARLINK-3299,PAYLOAD,2024-05-10 19:54:59,15.08857108,0.0001254,53.2164,287.326,100.3121,259.8012,0.0010419,0.0001634,0.0,0 STARLINK-3299,1 50831U 22001AE  24131.82985496  .00016340  00000-0  10419-2 0  9995,2 50831  53.2164 287.3260 0001254 100.3121 259.8012 15.08857108130855,6917.828,95.436,540.561,538.826,0.0
50831.0,STARLINK-3299,PAYLOAD,2024-05-11 19:45:45,15.08817233,0.0001259,53.2169,282.8659,112.4762,247.6363,0.0020558,0.00032561,0.0,0 STARLINK-3299,1 50831U 22001AE  24132.82344830  .00032561  00000-0  20558-2 0  9995,2 50831  53.2169 282.8659 0001259 112.4762 247.6363 15.08817233131009,6917.95,95.439,540.686,538.944,0.0
50831.0,STARLINK-3299,PAYLOAD,2024-05-12 13:15:03,15.08762528,0.0001025,53.2162,279.5949,81.8036,278.3073,-0.00010294,-1.922e-05,0.0,0 STARLINK-3299,1 50831U 22001AE  24133.55212213 -.00001922  00000-0 -10294-3 0  9991,2 50831  53.2162 279.5949 0001025  81.8036 278.3073 15.08762528131118,6918.117,95.442,540.691,539.273,0.0
50831.0,STARLINK-3299,PAYLOAD,2024-05-12 14:50:26,15.08775313,0.0001366,53.218,279.2972,65.8396,294.2739,-0.00060513,-9.888e-05,0.0,0 STARLINK-3299,1 50831U 22001AE  24133.61836457 -.00009888  00000-0 -60513-3 0  9998,2 50831  53.2180 279.2972 0001366  65.8396 294.2739 15.08775313129850,6918.078,95.442,540.888,538.998,0.0
50831.0,STARLINK-3299,PAYLOAD,2024-05-12 16:25:49,15.08803794,0.0002556,53.2163,279.0009,140.0658,220.0523,0.0001956,2.823e-05,0.0,0 STARLINK-3299,1 50831U 22001AE  24133.68459900  .00002823  00000-0  19560-3 0  9995,2 50831  53.2163 279.0009 0002556 140.0658 220.0523 15.08803794131136,6917.991,95.44,541.624,538.088,0.0
50831.0,STARLINK-3299,PAYLOAD,2024-05-13 09:55:04,15.08841728,0.0001369,53.2169,275.7264,101.5381,258.5765,0.0014437,0.00022764,0.0,0 STARLINK-3299,1 50831U 22001AE  24134.41324280  .00022764  00000-0  14437-2 0  9992,2 50831  53.2169 275.7264 0001369 101.5381 258.5765 15.08841728131249,6917.875,95.437,540.687,538.793,0.0
50831.0,STARLINK-3299,PAYLOAD,2024-05-13 19:27:22,15.08867037,0.0001312,53.2167,273.9438,77.8772,282.2367,0.0010223,0.00016031,0.0,0 STARLINK-3299,1 50831U 22001AE  24134.81067431  .00016031  00000-0  10223-2 0  9997,2 50831  53.2167 273.9438 0001312  77.8772 282.2367 15.08867037130036,6917.798,95.436,540.57,538.755,0.0
50831.0,STARLINK-3299,PAYLOAD,2024-05-14 09:45:49,15.08866302,0.0001687,53.2169,271.268,82.924,277.1944,0.00029708,4.446e-05,0.0,0 STARLINK-3299,1 50831U 22001AE  24135.40682495  .00004446  00000-0  29708-3 0  9992,2 50831  53.2169 271.2680 0001687  82.9240 277.1944 15.08866302131398,6917.8,95.436,540.832,538.498,0.0
50831.0,STARLINK-3299,PAYLOAD,2024-05-15 12:47:22,15.08833338,0.0001838,53.2152,266.2136,88.9373,271.1829,-0.00046859,-7.737e-05,0.0,0 STARLINK-3299,1 50831U 22001AE  24136.53290186 -.00007737  00000-0 -46859-3 0  9993,2 50831  53.2152 266.2136 0001838  88.9373 271.1829 15.08833338131569,6917.901,95.438,541.037,538.494,0.0
